NORAD_CAT_ID,OBJECT_NAME,OBJECT_TYPE,EPOCH,MEAN_MOTION,ECCENTRICITY,INCLINATION,RA_OF_ASC_NODE,ARG_OF_PERICENTER,MEAN_ANOMALY,BSTAR,MEAN_MOTION_DOT,MEAN_MOTION_DDOT,TLE_LINE0,TLE_LINE1,TLE_LINE2,SEMIMAJOR_AXIS,PERIOD,APOGEE,PERIGEE,DECAYED
55751.0,STARLINK-5577,PAYLOAD,2023-07-17 23:28:42,14.98342077,0.0003677,69.9987,159.4523,268.209,91.8647,-0.00018757,-2.331e-05,0.0,0 STARLINK-5577,1 55751U 23028L   23198.97826964 -.00002331  00000-0 -18757-3 0  9994,2 55751  69.9987 159.4523 0003677 268.2090  91.8647 14.98342077 21386,6950.156,96.106,574.576,569.465,0.0
55751.0,STARLINK-5577,PAYLOAD,2023-07-18 07:29:22,14.98326009,0.000366,69.9988,158.6107,265.9839,94.0902,0.00029198,3.392e-05,0.0,0 STARLINK-5577,1 55751U 23028L   23199.31206898  .00003392  00000-0  29198-3 0  9998,2 55751  69.9988 158.6107 0003660 265.9839  94.0902 14.98326009 21435,6950.205,96.107,574.614,569.526,0.0
55751.0,STARLINK-5577,PAYLOAD,2023-07-19 02:42:58,14.98341466,0.0003659,69.9988,156.5907,265.6696,94.4045,0.00026264,3.043e-05,0.0,0 STARLINK-5577,1 55751U 23028L   23200.11317809  .00003043  00000-0  26264-3 0  9998,2 55751  69.9988 156.5907 0003659 265.6696  94.4045 14.98341466 21555,6950.157,96.106,574.565,569.479,0.0
55751.0,STARLINK-5577,PAYLOAD,2023-07-19 07:31:22,14.98347585,0.0003611,69.9989,156.0857,265.3831,94.6916,0.00027629,3.207e-05,0.0,0 STARLINK-5577,1 55751U 23028L   23200.31345218  .00003207  00000-0  27629-3 0  9993,2 55751  69.9989 156.0857 0003611 265.3831  94.6916 14.98347585 21581,6950.139,96.106,574.513,569.494,0.0
55751.0,STARLINK-5577,PAYLOAD,2023-07-20 20:22:28,14.98340481,0.0003552,69.9991,152.2143,267.3741,92.7011,-0.00013293,-1.679e-05,0.0,0 STARLINK-5577,1 55751U 23028L   23201.84893999 -.00001679  00000-0 -13293-3 0  9991,2 55751  69.9991 152.2143 0003552 267.3741  92.7011 14.98340481 21815,6950.16,96.106,574.494,569.557,0.0
55751.0,STARLINK-5577,PAYLOAD,2023-07-21 05:59:16,14.98345683,0.0003573,69.999,151.2043,267.9724,92.1026,-6.3435e-05,-8.5e-06,0.0,0 STARLINK-5577,1 55751U 23028L   23202.24949176 -.00000850  00000-0 -63435-4 0  9999,2 55751  69.9990 151.2043 0003573 267.9724  92.1026 14.98345683 21877,6950.144,96.106,574.493,569.526,0.0
55751.0,STARLINK-5577,PAYLOAD,2023-07-24 06:05:19,14.9833302,0.0003443,69.9994,143.6303,268.3642,91.7123,6.5875e-05,6.93e-06,0.0,0 STARLINK-5577,1 55751U 23028L   23205.25369361  .00000693  00000-0  65875-4 0  9998,2 55751  69.9994 143.6303 0003443 268.3642  91.7123 14.98333020 22321,6950.184,96.107,574.442,569.656,0.0
55751.0,STARLINK-5577,PAYLOAD,2023-07-25 06:07:20,14.98332101,0.0002931,70.0,141.1038,267.534,92.5484,0.00010728,1.187e-05,0.0,0 STARLINK-5577,1 55751U 23028L   23206.25509370  .00001187  00000-0  10728-3 0  9990,2 55751  70.0000 141.1038 0002931 267.5340  92.5484 14.98332101 22471,6950.186,96.107,574.088,570.014,0.0
55751.0,STARLINK-5577,PAYLOAD,2023-07-26 02:57:04,14.98334061,0.0003281,69.9991,138.9167,269.4745,90.6038,1.8967e-05,1.33e-06,0.0,0 STARLINK-5577,1 55751U 23028L   23207.12297451  .00000133  00000-0  18967-4 0  9995,2 55751  69.9991 138.9167 0003281 269.4745  90.6038 14.98334061 22609,6950.18,96.107,574.326,569.765,0.0
55751.0,STARLINK-5577,PAYLOAD,2023-07-26 04:33:12,14.98335959,0.0003288,69.9992,138.7483,269.2695,90.8087,3.9567e-05,3.79e-06,0.0,0 STARLINK-5577,1 55751U 23028L   23207.18973249  .00000379  00000-0  39567-4 0  9998,2 55751  69.9992 138.7483 0003288 269.2695  90.8087 14.98335959 22612,6950.174,96.107,574.325,569.754,0.0
55751.0,STARLINK-5577,PAYLOAD,2023-07-27 06:11:21,14.98342875,0.0003248,69.9994,136.0554,269.247,90.8317,8.5234e-05,9.24e-06,0.0,0 STARLINK-5577,1 55751U 23028L   23208.25788387  .00000924  00000-0  85234-4 0  9992,2 55751  69.9994 136.0554 0003248 269.2470  90.8317 14.98342875 22779,6950.153,96.106,574.275,569.761,0.0
55751.0,STARLINK-5577,PAYLOAD,2023-07-27 12:35:53,14.98333708,0.0003146,69.9989,135.3825,268.3722,91.7076,6.1718e-05,6.44e-06,0.0,0 STARLINK-5577,1 55751U 23028L   23208.52492980  .00000644  00000-0  61718-4 0  9993,2 55751  69.9989 135.3825 0003146 268.3722  91.7076 14.98333708 22815,6950.181,96.107,574.233,569.86,0.0
55751.0,STARLINK-5577,PAYLOAD,2023-07-27 19:00:27,14.98317951,0.0003726,69.9992,134.7085,273.7437,86.3296,-0.0001343,-1.695e-05,0.0,0 STARLINK-5577,1 55751U 23028L   23208.79198537 -.00001695  00000-0 -13430-3 0  9999,2 55751  69.9992 134.7085 0003726 273.7437  86.3296 14.98317951 22857,6950.23,96.108,574.685,569.505,0.0
55751.0,STARLINK-5577,PAYLOAD,2023-07-28 01:24:59,14.98320403,0.0003493,69.9987,134.0352,271.2,88.8758,-0.00011246,-1.434e-05,0.0,0 STARLINK-5577,1 55751U 23028L   23209.05902437 -.00001434  00000-0 -11246-3 0  9995,2 55751  69.9987 134.0352 0003493 271.2000  88.8758 14.98320403 22891,6950.223,96.108,574.515,569.66,0.0
55751.0,STARLINK-5577,PAYLOAD,2023-07-28 14:14:03,14.98327827,0.0003174,69.9992,132.6893,270.3084,89.7711,-1.8187e-05,-3.1e-06,0.0,0 STARLINK-5577,1 55751U 23028L   23209.59309909 -.00000310  00000-0 -18187-4 0  9993,2 55751  69.9992 132.6893 0003174 270.3084  89.7711 14.98327827 22974,6950.2,96.107,574.271,569.859,0.0
55751.0,STARLINK-5577,PAYLOAD,2023-07-29 03:03:07,14.9833845,0.0003157,69.9991,131.3427,270.0258,90.054,3.0353e-05,2.69e-06,0.0,0 STARLINK-5577,1 55751U 23028L   23210.12717083  .00000269  00000-0  30353-4 0  9990,2 55751  69.9991 131.3427 0003157 270.0258  90.0540 14.98338450 23052,6950.167,96.106,574.226,569.838,0.0
55751.0,STARLINK-5577,PAYLOAD,2023-07-29 19:04:28,14.98321999,0.0003069,69.9993,129.6597,270.8613,89.2194,0.00014403,1.626e-05,0.0,0 STARLINK-5577,1 55751U 23028L   23210.79477786  .00001626  00000-0  14403-3 0  9991,2 55751  69.9993 129.6597 0003069 270.8613  89.2194 14.98321999 23153,6950.218,96.108,574.216,569.95,0.0
55751.0,STARLINK-5577,PAYLOAD,2023-07-30 01:29:00,14.98329938,0.0003013,69.9995,128.9863,270.5426,89.5387,0.00014976,1.694e-05,0.0,0 STARLINK-5577,1 55751U 23028L   23211.06181386  .00001694  00000-0  14976-3 0  9990,2 55751  69.9995 128.9863 0003013 270.5426  89.5387 14.98329938 23193,6950.193,96.107,574.152,569.964,0.0
55751.0,STARLINK-5577,PAYLOAD,2023-07-31 01:31:01,14.98335278,0.0003084,69.9992,126.4612,271.3887,88.6919,4.1347e-05,4e-06,0.0,0 STARLINK-5577,1 55751U 23028L   23212.06321249  .00000400  00000-0  41347-4 0  9992,2 55751  69.9992 126.4612 0003084 271.3887  88.6919 14.98335278 23345,6950.177,96.107,574.185,569.898,0.0
55751.0,STARLINK-5577,PAYLOAD,2023-08-01 03:09:10,14.98330306,0.0002785,69.9994,123.7681,271.3116,88.7724,1.576e-05,9.5e-07,0.0,0 STARLINK-5577,1 55751U 23028L   23213.13137578  .00000095  00000-0  15760-4 0  9991,2 55751  69.9994 123.7681 0002785 271.3116  88.7724 14.98330306 23505,6950.192,96.107,573.993,570.121,0.0
55751.0,STARLINK-5577,PAYLOAD,2023-08-01 23:58:56,14.98324619,0.0002863,69.9994,121.5799,269.4574,90.6257,-2.6787e-05,-4.13e-06,0.0,0 STARLINK-5577,1 55751U 23028L   23213.99926113 -.00000413  00000-0 -26787-4 0  9993,2 55751  69.9994 121.5799 0002863 269.4574  90.6257 14.98324619 23631,6950.21,96.107,574.064,570.085,0.0
55751.0,STARLINK-5577,PAYLOAD,2023-08-02 11:11:51,14.98351053,0.0002782,69.9998,120.4019,272.9726,87.1115,-0.00033334,-4.07e-05,0.0,0 STARLINK-5577,1 55751U 23028L   23214.46657098 -.00004070  00000-0 -33334-3 0  9997,2 55751  69.9998 120.4019 0002782 272.9726  87.1115 14.98351053 23700,6950.128,96.106,573.926,570.059,0.0
55751.0,STARLINK-5577,PAYLOAD,2023-08-03 01:37:04,14.98336977,0.0002859,69.9991,118.886,270.3351,89.748,0.00011272,1.252e-05,0.0,0 STARLINK-5577,1 55751U 23028L   23215.06740942  .00001252  00000-0  11272-3 0  9999,2 55751  69.9991 118.8860 0002859 270.3351  89.7480 14.98336977 23799,6950.171,96.107,574.023,570.049,0.0
55751.0,STARLINK-5577,PAYLOAD,2023-08-03 19:14:33,14.98324228,0.0003075,69.9988,117.0347,268.4747,91.606,-1.6142e-05,-2.86e-06,0.0,0 STARLINK-5577,1 55751U 23028L   23215.80178131 -.00000286  00000-0 -16142-4 0  9996,2 55751  69.9988 117.0347 0003075 268.4747  91.6060 14.98324228 23909,6950.211,96.107,574.213,569.939,0.0
55751.0,STARLINK-5577,PAYLOAD,2023-08-04 19:16:34,14.98332455,0.0003064,69.9987,114.5101,267.4941,92.5867,4.9633e-06,-3.4e-07,0.0,0 STARLINK-5577,1 55751U 23028L   23216.80317658 -.00000034  00000-0  49633-5 0  9998,2 55751  69.9987 114.5101 0003064 267.4941  92.5867 14.98332455 24054,6950.185,96.107,574.18,569.921,0.0
55751.0,STARLINK-5577,PAYLOAD,2023-08-05 03:17:14,14.98341747,0.0003007,69.9991,113.6692,263.8686,96.213,3.6617e-05,3.44e-06,0.0,0 STARLINK-5577,1 55751U 23028L   23217.13696882  .00000344  00000-0  36617-4 0  9994,2 55751  69.9991 113.6692 0003007 263.8686  96.2130 14.98341747 24101,6950.157,96.106,574.111,569.932,0.0
55751.0,STARLINK-5577,PAYLOAD,2023-08-05 19:18:34,14.98332743,0.0002854,69.9995,111.987,255.2828,104.8015,0.00015397,1.745e-05,0.0,0 STARLINK-5577,1 55751U 23028L   23217.80456964  .00001745  00000-0  15397-3 0  9990,2 55751  69.9995 111.9870 0002854 255.2828 104.8015 14.98332743 24201,6950.184,96.107,574.033,570.066,0.0
55751.0,STARLINK-5577,PAYLOAD,2023-08-06 09:43:48,14.98323699,0.0002199,69.9996,110.4717,265.2869,94.8039,-1.8865e-05,-3.18e-06,0.0,0 STARLINK-5577,1 55751U 23028L   23218.40542191 -.00000318  00000-0 -18865-4 0  9996,2 55751  69.9996 110.4717 0002199 265.2869  94.8039 14.98323699 24297,6950.212,96.107,573.606,570.549,0.0
55751.0,STARLINK-5577,PAYLOAD,2023-08-07 09:45:49,14.98323482,0.0002703,70.0,107.9479,260.2393,99.8461,-8.8196e-05,-1.145e-05,0.0,0 STARLINK-5577,1 55751U 23028L   23219.40682611 -.00001145  00000-0 -88196-4 0  9992,2 55751  70.0000 107.9479 0002703 260.2393  99.8461 14.98323482 24441,6950.213,96.107,573.957,570.199,0.0
55751.0,STARLINK-5577,PAYLOAD,2023-08-07 17:46:29,14.98332319,0.0002836,69.9994,107.1049,264.8629,95.2207,8.3798e-06,7e-08,0.0,0 STARLINK-5577,1 55751U 23028L   23219.74061845  .00000007  00000-0  83798-5 0  9997,2 55751  69.9994 107.1049 0002836 264.8629  95.2207 14.98332319 24496,6950.186,96.107,574.022,570.08,0.0
